IRIDIUM 136             
1 42962U 17061H   23199.65572152  .00000357  00000+0  12038-3 0  9996
2 42962  86.3973 110.1689 0002098  78.0497 282.0934 14.34219854302252
